[{"OBJECT_NAME":"STARLINK-36501","OBJECT_ID":"2026-002Y","EPOCH":"2026-03-09T02:34:42.746016","MEAN_MOTION":15.27611343,"ECCENTRICITY":0.00017045,"INCLINATION":43.0019,"RA_OF_ASC_NODE":328.2274,"ARG_OF_PERICENTER":276.0429,"MEAN_ANOMALY":84.0228,"EPHEMERIS_TYPE":0,"CLASSIFICATION_TYPE":"U","NORAD_CAT_ID":67327,"ELEMENT_SET_NO":999,"REV_AT_EPOCH":1099,"BSTAR":0.0010137739,"MEAN_MOTION_DOT":0.00027767,"MEAN_MOTION_DDOT":0},{"OBJECT_NAME":"CZ-6A DEB","OBJECT_ID":"2022-151ME","EPOCH":"2026-03-09T17:07:50.636064","MEAN_MOTION":15.20556855,"ECCENTRICITY":0.00283971,"INCLINATION":98.6182,"RA_OF_ASC_NODE":149.2426,"ARG_OF_PERICENTER":178.5587,"MEAN_ANOMALY":181.5732,"EPHEMERIS_TYPE":0,"CLASSIFICATION_TYPE":"U","NORAD_CAT_ID":54578,"ELEMENT_SET_NO":999,"REV_AT_EPOCH":10518,"BSTAR":0.0077423675,"MEAN_MOTION_DOT":0.00175116,"MEAN_MOTION_DDOT":0}]
